ONEWEB-0160             
1 48060U 21025U   21133.83334491 -.01418775  00000-0 -28851+0 0  9991
2 48060  87.4762 333.1085 0008148  96.4250 129.9690 14.64788265  8829
ONEWEB-0163             
1 48061U 21025V   21133.91667824 -.01348981  00000-0 -19141+0 0  9993
2 48061  87.5612 332.9589 0013452  87.3988  80.8478 14.80112574  8889
ONEWEB-0159             
1 48062U 21025W   21133.91667824 -.01387432  00000-0 -21233+0 0  9993
2 48062  87.5465 333.0152 0008751  75.9317  17.1729 14.77072305  8862
ONEWEB-0164             
1 48063U 21025X   21133.91667824 -.01395429  00000-0 -25907+0 0  9991
2 48063  87.4955 333.0611 0013000  87.2331   0.1165 14.68704233  8858
ONEWEB-0167             
1 48064U 21025Y   21133.91667824 -.01352453  00000-0 -26449+0 0  9994
2 48064  87.4875 333.0746 0011015 102.9171 336.2833 14.66328339  8829
ONEWEB-0166             
1 48065U 21025Z   21133.91667824 -.01348498  00000-0 -19013+0 0  9998
2 48065  87.5644 332.9730 0012975  85.1470 122.7570 14.80383580  8883
ONEWEB-0151             
1 48066U 21025AA  21134.25001157 -.01430022  00000-0 -23966+0 0  9995
2 48066  87.5341 332.9233 0008530  83.3545 198.0981 14.73292229  8918
ONEWEB-0170             
1 48067U 21025AB  21133.03152228 -.00287867  00000-0 -47495-1 0  9998
2 48067  87.4900 333.3343 0011442  94.1186 266.1340 14.72344585  8696
ONEWEB-0168             
1 48068U 21025AC  21133.91667824 -.01370725  00000-0 -28170+0 0  9993
2 48068  87.4742 333.0819 0009433  96.4981 159.9195 14.64181713  8804
ONEWEB-0173             
1 48069U 21025AD  21133.91667824 -.01278461  00000-0 -17492+0 0  9993
2 48069  87.5205 332.9723 0009577  88.1671  57.7059 14.82031229  8861
ONEWEB-0171             
1 48070U 21025AE  21133.91667824 -.01381732  00000-0 -20529+0 0  9996
2 48070  87.5545 332.9810 0012367  92.5997 278.1840 14.78268921  8883
ONEWEB-0172             
1 48071U 21025AF  21134.16667824 -.01475890  00000-0 -23987+0 0  9995
2 48071  87.5286 332.9198 0009233  82.1803 118.8705 14.74713125  8892
ONEWEB-0174             
1 48072U 21025AG  21133.91667824 -.01331222  00000-0 -16054+0 0  9995
2 48072  87.5693 332.9194 0013744  71.0907 172.1363 14.87287470  8903
ONEWEB-0175             
1 48073U 21025AH  21133.91667824 -.01385701  00000-0 -28387+0 0  9999
2 48073  87.4711 333.0942 0009683 100.1231 234.6001 14.64359755  8823
ONEWEB-0177             
1 48074U 21025AJ  21134.25001157 -.01420638  00000-0 -19244+0 0  9990
2 48074  87.5806 332.8303 0013964  72.5730  11.5267 14.82199734  8949
ONEWEB-0178             
1 48075U 21025AK  21134.25001157 -.01347099  00000-0 -15974+0 0  9996
2 48075  87.5775 332.8151 0014072  71.8484  58.2925 14.88004342  8951
