[
{
"OBJECT_NAME": "ONEWEB-0160",
"OBJECT_ID": "2021-025U",
"EPOCH": "2021-05-13T20:00:01.000224",
"MEAN_MOTION": 14.64788265,
"ECCENTRICITY": 0.0008148,
"INCLINATION": 87.4762,
"RA_OF_ASC_NODE": 333.1085,
"ARG_OF_PERICENTER": 96.425,
"MEAN_ANOMALY": 129.969,
"EPHEMERIS_TYPE": 0,
"CLASSIFICATION_TYPE": "U",
"NORAD_CAT_ID": 48060,
"ELEMENT_SET_NO": 999,
"REV_AT_EPOCH": 882,
"BSTAR": -0.28851,
"MEAN_MOTION_DOT": -0.01418775,
"MEAN_MOTION_DDOT": 0
},
{
"OBJECT_NAME": "ONEWEB-0163",
"OBJECT_ID": "2021-025V",
"EPOCH": "2021-05-13T22:00:00.999936",
"MEAN_MOTION": 14.80112574,
"ECCENTRICITY": 0.0013452,
"INCLINATION": 87.5612,
"RA_OF_ASC_NODE": 332.9589,
"ARG_OF_PERICENTER": 87.3988,
"MEAN_ANOMALY": 80.8478,
"EPHEMERIS_TYPE": 0,
"CLASSIFICATION_TYPE": "U",
"NORAD_CAT_ID": 48061,
"ELEMENT_SET_NO": 999,
"REV_AT_EPOCH": 888,
"BSTAR": -0.19141,
"MEAN_MOTION_DOT": -0.01348981,
"MEAN_MOTION_DDOT": 0
},
{
"OBJECT_NAME": "ONEWEB-0159",
"OBJECT_ID": "2021-025W",
"EPOCH": "2021-05-13T22:00:00.999936",
"MEAN_MOTION": 14.77072305,
"ECCENTRICITY": 0.0008751,
"INCLINATION": 87.5465,
"RA_OF_ASC_NODE": 333.0152,
"ARG_OF_PERICENTER": 75.9317,
"MEAN_ANOMALY": 17.1729,
"EPHEMERIS_TYPE": 0,
"CLASSIFICATION_TYPE": "U",
"NORAD_CAT_ID": 48062,
"ELEMENT_SET_NO": 999,
"REV_AT_EPOCH": 886,
"BSTAR": -0.21233,
"MEAN_MOTION_DOT": -0.01387432,
"MEAN_MOTION_DDOT": 0
},
{
"OBJECT_NAME": "ONEWEB-0164",
"OBJECT_ID": "2021-025X",
"EPOCH": "2021-05-13T22:00:00.999936",
"MEAN_MOTION": 14.68704233,
"ECCENTRICITY": 0.0013,
"INCLINATION": 87.4955,
"RA_OF_ASC_NODE": 333.0611,
"ARG_OF_PERICENTER": 87.2331,
"MEAN_ANOMALY": 0.1165,
"EPHEMERIS_TYPE": 0,
"CLASSIFICATION_TYPE": "U",
"NORAD_CAT_ID": 48063,
"ELEMENT_SET_NO": 999,
"REV_AT_EPOCH": 885,
"BSTAR": -0.25907,
"MEAN_MOTION_DOT": -0.01395429,
"MEAN_MOTION_DDOT": 0
},
{
"OBJECT_NAME": "ONEWEB-0167",
"OBJECT_ID": "2021-025Y",
"EPOCH": "2021-05-13T22:00:00.999936",
"MEAN_MOTION": 14.66328339,
"ECCENTRICITY": 0.0011015,
"INCLINATION": 87.4875,
"RA_OF_ASC_NODE": 333.0746,
"ARG_OF_PERICENTER": 102.9171,
"MEAN_ANOMALY": 336.2833,
"EPHEMERIS_TYPE": 0,
"CLASSIFICATION_TYPE": "U",
"NORAD_CAT_ID": 48064,
"ELEMENT_SET_NO": 999,
"REV_AT_EPOCH": 882,
"BSTAR": -0.26449,
"MEAN_MOTION_DOT": -0.01352453,
"MEAN_MOTION_DDOT": 0
},
{
"OBJECT_NAME": "ONEWEB-0166",
"OBJECT_ID": "2021-025Z",
"EPOCH": "2021-05-13T22:00:00.999936",
"MEAN_MOTION": 14.8038358,
"ECCENTRICITY": 0.0012975,
"INCLINATION": 87.5644,
"RA_OF_ASC_NODE": 332.973,
"ARG_OF_PERICENTER": 85.147,
"MEAN_ANOMALY": 122.757,
"EPHEMERIS_TYPE": 0,
"CLASSIFICATION_TYPE": "U",
"NORAD_CAT_ID": 48065,
"ELEMENT_SET_NO": 999,
"REV_AT_EPOCH": 888,
"BSTAR": -0.19013,
"MEAN_MOTION_DOT": -0.01348498,
"MEAN_MOTION_DDOT": 0
},
{
"OBJECT_NAME": "ONEWEB-0151",
"OBJECT_ID": "2021-025AA",
"EPOCH": "2021-05-14T06:00:00.999648",
"MEAN_MOTION": 14.73292229,
"ECCENTRICITY": 0.000853,
"INCLINATION": 87.5341,
"RA_OF_ASC_NODE": 332.9233,
"ARG_OF_PERICENTER": 83.3545,
"MEAN_ANOMALY": 198.0981,
"EPHEMERIS_TYPE": 0,
"CLASSIFICATION_TYPE": "U",
"NORAD_CAT_ID": 48066,
"ELEMENT_SET_NO": 999,
"REV_AT_EPOCH": 891,
"BSTAR": -0.23966,
"MEAN_MOTION_DOT": -0.01430022,
"MEAN_MOTION_DDOT": 0
},
{
"OBJECT_NAME": "ONEWEB-0170",
"OBJECT_ID": "2021-025AB",
"EPOCH": "2021-05-13T00:45:23.524992",
"MEAN_MOTION": 14.72344585,
"ECCENTRICITY": 0.0011442,
"INCLINATION": 87.49,
"RA_OF_ASC_NODE": 333.3343,
"ARG_OF_PERICENTER": 94.1186,
"MEAN_ANOMALY": 266.134,
"EPHEMERIS_TYPE": 0,
"CLASSIFICATION_TYPE": "U",
"NORAD_CAT_ID": 48067,
"ELEMENT_SET_NO": 999,
"REV_AT_EPOCH": 869,
"BSTAR": -0.047495,
"MEAN_MOTION_DOT": -0.00287867,
"MEAN_MOTION_DDOT": 0
},
{
"OBJECT_NAME": "ONEWEB-0168",
"OBJECT_ID": "2021-025AC",
"EPOCH": "2021-05-13T22:00:00.999936",
"MEAN_MOTION": 14.64181713,
"ECCENTRICITY": 0.0009433,
"INCLINATION": 87.4742,
"RA_OF_ASC_NODE": 333.0819,
"ARG_OF_PERICENTER": 96.4981,
"MEAN_ANOMALY": 159.9195,
"EPHEMERIS_TYPE": 0,
"CLASSIFICATION_TYPE": "U",
"NORAD_CAT_ID": 48068,
"ELEMENT_SET_NO": 999,
"REV_AT_EPOCH": 880,
"BSTAR": -0.2817,
"MEAN_MOTION_DOT": -0.01370725,
"MEAN_MOTION_DDOT": 0
},
{
"OBJECT_NAME": "ONEWEB-0173",
"OBJECT_ID": "2021-025AD",
"EPOCH": "2021-05-13T22:00:00.999936",
"MEAN_MOTION": 14.82031229,
"ECCENTRICITY": 0.0009577,
"INCLINATION": 87.5205,
"RA_OF_ASC_NODE": 332.9723,
"ARG_OF_PERICENTER": 88.1671,
"MEAN_ANOMALY": 57.7059,
"EPHEMERIS_TYPE": 0,
"CLASSIFICATION_TYPE": "U",
"NORAD_CAT_ID": 48069,
"ELEMENT_SET_NO": 999,
"REV_AT_EPOCH": 886,
"BSTAR": -0.17492,
"MEAN_MOTION_DOT": -0.01278461,
"MEAN_MOTION_DDOT": 0
},
{
"OBJECT_NAME": "ONEWEB-0171",
"OBJECT_ID": "2021-025AE",
"EPOCH": "2021-05-13T22:00:00.999936",
"MEAN_MOTION": 14.78268921,
"ECCENTRICITY": 0.0012367,
"INCLINATION": 87.5545,
"RA_OF_ASC_NODE": 332.981,
"ARG_OF_PERICENTER": 92.5997,
"MEAN_ANOMALY": 278.184,
"EPHEMERIS_TYPE": 0,
"CLASSIFICATION_TYPE": "U",
"NORAD_CAT_ID": 48070,
"ELEMENT_SET_NO": 999,
"REV_AT_EPOCH": 888,
"BSTAR": -0.20529,
"MEAN_MOTION_DOT": -0.01381732,
"MEAN_MOTION_DDOT": 0
},
{
"OBJECT_NAME": "ONEWEB-0172",
"OBJECT_ID": "2021-025AF",
"EPOCH": "2021-05-14T04:00:00.999936",
"MEAN_MOTION": 14.74713125,
"ECCENTRICITY": 0.0009233,
"INCLINATION": 87.5286,
"RA_OF_ASC_NODE": 332.9198,
"ARG_OF_PERICENTER": 82.1803,
"MEAN_ANOMALY": 118.8705,
"EPHEMERIS_TYPE": 0,
"CLASSIFICATION_TYPE": "U",
"NORAD_CAT_ID": 48071,
"ELEMENT_SET_NO": 999,
"REV_AT_EPOCH": 889,
"BSTAR": -0.23987,
"MEAN_MOTION_DOT": -0.0147589,
"MEAN_MOTION_DDOT": 0
},
{
"OBJECT_NAME": "ONEWEB-0174",
"OBJECT_ID": "2021-025AG",
"EPOCH": "2021-05-13T22:00:00.999936",
"MEAN_MOTION": 14.8728747,
"ECCENTRICITY": 0.0013744,
"INCLINATION": 87.5693,
"RA_OF_ASC_NODE": 332.9194,
"ARG_OF_PERICENTER": 71.0907,
"MEAN_ANOMALY": 172.1363,
"EPHEMERIS_TYPE": 0,
"CLASSIFICATION_TYPE": "U",
"NORAD_CAT_ID": 48072,
"ELEMENT_SET_NO": 999,
"REV_AT_EPOCH": 890,
"BSTAR": -0.16054,
"MEAN_MOTION_DOT": -0.01331222,
"MEAN_MOTION_DDOT": 0
},
{
"OBJECT_NAME": "ONEWEB-0175",
"OBJECT_ID": "2021-025AH",
"EPOCH": "2021-05-13T22:00:00.999936",
"MEAN_MOTION": 14.64359755,
"ECCENTRICITY": 0.0009683,
"INCLINATION": 87.4711,
"RA_OF_ASC_NODE": 333.0942,
"ARG_OF_PERICENTER": 100.1231,
"MEAN_ANOMALY": 234.6001,
"EPHEMERIS_TYPE": 0,
"CLASSIFICATION_TYPE": "U",
"NORAD_CAT_ID": 48073,
"ELEMENT_SET_NO": 999,
"REV_AT_EPOCH": 882,
"BSTAR": -0.28387,
"MEAN_MOTION_DOT": -0.01385701,
"MEAN_MOTION_DDOT": 0
},
{
"OBJECT_NAME": "ONEWEB-0177",
"OBJECT_ID": "2021-025AJ",
"EPOCH": "2021-05-14T06:00:00.999648",
"MEAN_MOTION": 14.82199734,
"ECCENTRICITY": 0.0013964,
"INCLINATION": 87.5806,
"RA_OF_ASC_NODE": 332.8303,
"ARG_OF_PERICENTER": 72.573,
"MEAN_ANOMALY": 11.5267,
"EPHEMERIS_TYPE": 0,
"CLASSIFICATION_TYPE": "U",
"NORAD_CAT_ID": 48074,
"ELEMENT_SET_NO": 999,
"REV_AT_EPOCH": 894,
"BSTAR": -0.19244,
"MEAN_MOTION_DOT": -0.01420638,
"MEAN_MOTION_DDOT": 0
},
{
"OBJECT_NAME": "ONEWEB-0178",
"OBJECT_ID": "2021-025AK",
"EPOCH": "2021-05-14T06:00:00.999648",
"MEAN_MOTION": 14.88004342,
"ECCENTRICITY": 0.0014072,
"INCLINATION": 87.5775,
"RA_OF_ASC_NODE": 332.8151,
"ARG_OF_PERICENTER": 71.8484,
"MEAN_ANOMALY": 58.2925,
"EPHEMERIS_TYPE": 0,
"CLASSIFICATION_TYPE": "U",
"NORAD_CAT_ID": 48075,
"ELEMENT_SET_NO": 999,
"REV_AT_EPOCH": 895,
"BSTAR": -0.15974,
"MEAN_MOTION_DOT": -0.01347099,
"MEAN_MOTION_DDOT": 0
}
]